{"type": "FeatureCollection", "features": [ {"type": "Feature", "properties": {"norad_id": 66625, "name": "STARLINK-35929", "group": "last-30-days", "lat": 50.41995441950518, "lon": -175.22968911564445, "alt_km": 439.5984443071784, "timestamp": "2025-12-26T23:26:40.919564+00:00", "meta": {"OBJECT_NAME": "STARLINK-35929", "OBJECT_ID": "2025-271J", "EPOCH": "2025-12-26T15:20:00.070080", "MEAN_MOTION": 15.39616872, "ECCENTRICITY": 0.0001083, "INCLINATION": 53.16, "RA_OF_ASC_NODE": 121.2837, "ARG_OF_PERICENTER": 75.7835, "MEAN_ANOMALY": 284.329, "EPHEMERIS_TYPE": 0, "CLASSIFICATION_TYPE": "U", "NORAD_CAT_ID": 66625, "ELEMENT_SET_NO": 999, "REV_AT_EPOCH": 635, "BSTAR": 0.0016868, "MEAN_MOTION_DOT": 0.00067664, "MEAN_MOTION_DDOT": 0}, "tle": {"line1": "1 66625U 25271J   25360.63888970  .00067664  00000+0  16868-2 0  9996", "line2": "2 66625  53.1600 121.2837 0001083  75.7835 284.3290 15.39616872  6353"}}, "geometry": {"type": "Point", "coordinates": [-175.22968911564445, 50.41995441950518]}}, {"type": "Feature", "properties": {"norad_id": 66626, "name": "STARLINK-35902", "group": "last-30-days", "lat": -2.330267237648436, "lon": 118.09541409999083, "alt_km": 447.8331054577202, "timestamp": "2025-12-26T23:26:40.919575+00:00", "meta": {"OBJECT_NAME": "STARLINK-35902", "OBJECT_ID": "2025-271K", "EPOCH": "2025-12-26T17:13:32.303136", "MEAN_MOTION": 15.39639162, "ECCENTRICITY": 0.0001273, "INCLINATION": 53.1599, "RA_OF_ASC_NODE": 121.0651, "ARG_OF_PERICENTER": 53.5743, "MEAN_ANOMALY": 306.5379, "EPHEMERIS_TYPE": 0, "CLASSIFICATION_TYPE": "U", "NORAD_CAT_ID": 66626, "ELEMENT_SET_NO": 999, "REV_AT_EPOCH": 636, "BSTAR": 0.0011857, "MEAN_MOTION_DOT": 0.00047354, "MEAN_MOTION_DDOT": 0}, "tle": {"line1": "1 66626U 25271K   25360.71773499  .00047354  00000+0  11857-2 0  9992", "line2": "2 66626  53.1599 121.0651 0001273  53.5743 306.5379 15.39639162  6369"}}, "geometry": {"type": "Point", "coordinates": [118.09541409999083, -2.330267237648436]}}, {"type": "Feature", "properties": {"norad_id": 66627, "name": "STARLINK-35904", "group": "last-30-days", "lat": 36.91110786691195, "lon": 154.01306664104283, "alt_km": 441.5547109694917, "timestamp": "2025-12-26T23:26:40.919586+00:00", "meta": {"OBJECT_NAME": "STARLINK-35904", "OBJECT_ID": "2025-271L", "EPOCH": "2025-12-26T15:26:41.290080", "MEAN_MOTION": 15.39625966, "ECCENTRICITY": 0.0001228, "INCLINATION": 53.1601, "RA_OF_ASC_NODE": 121.3118, "ARG_OF_PERICENTER": 69.8417, "MEAN_ANOMALY": 290.272, "EPHEMERIS_TYPE": 0, "CLASSIFICATION_TYPE": "U", "NORAD_CAT_ID": 66627, "ELEMENT_SET_NO": 999, "REV_AT_EPOCH": 631, "BSTAR": 0.0017396, "MEAN_MOTION_DOT": 0.00069836, "MEAN_MOTION_DDOT": 0}, "tle": {"line1": "1 66627U 25271L   25360.64353345  .00069836  00000+0  17396-2 0  9992", "line2": "2 66627  53.1601 121.3118 0001228  69.8417 290.2720 15.39625966  6314"}}, "geometry": {"type": "Point", "coordinates": [154.01306664104283, 36.91110786691195]}}, {"type": "Feature", "properties": {"norad_id": 66628, "name": "STARLINK-35862", "group": "last-30-days", "lat": 0.5030532133056846, "lon": -60.89340618393822, "alt_km": 448.2670297469358, "timestamp": "2025-12-26T23:26:40.919598+00:00", "meta": {"OBJECT_NAME": "STARLINK-35862", "OBJECT_ID": "2025-271M", "EPOCH": "2025-12-26T18:00:02.998944", "MEAN_MOTION": 15.39570279, "ECCENTRICITY": 0.0001303, "INCLINATION": 53.1602, "RA_OF_ASC_NODE": 120.5528, "ARG_OF_PERICENTER": 78.4114, "MEAN_ANOMALY": 282.9388, "EPHEMERIS_TYPE": 0, "CLASSIFICATION_TYPE": "U", "NORAD_CAT_ID": 66628, "ELEMENT_SET_NO": 999, "REV_AT_EPOCH": 605, "BSTAR": 0.001988, "MEAN_MOTION_DOT": 0.00079823, "MEAN_MOTION_DDOT": 0}, "tle": {"line1": "1 66628U 25271M   25360.75003471  .00079823  00000+0  19880-2 0  9994", "line2": "2 66628  53.1602 120.5528 0001303  78.4114 282.9388 15.39570279  6051"}}, "geometry": {"type": "Point", "coordinates": [-60.89340618393822, 0.5030532133056846]}}, {"type": "Feature", "properties": {"norad_id": 66629, "name": "STARLINK-35956", "group": "last-30-days", "lat": 29.84273086061943, "lon": -86.60086814740384, "alt_km": 394.91873591564945, "timestamp": "2025-12-26T23:26:40.919609+00:00", "meta": {"OBJECT_NAME": "STARLINK-35956", "OBJECT_ID": "2025-271N", "EPOCH": "2025-12-26T18:13:07.835808", "MEAN_MOTION": 15.5692036, "ECCENTRICITY": 0.0009882, "INCLINATION": 53.1714, "RA_OF_ASC_NODE": 119.9159, "ARG_OF_PERICENTER": 28.4892, "MEAN_ANOMALY": 331.6659, "EPHEMERIS_TYPE": 0, "CLASSIFICATION_TYPE": "U", "NORAD_CAT_ID": 66629, "ELEMENT_SET_NO": 999, "REV_AT_EPOCH": 124, "BSTAR": 0.0064158, "MEAN_MOTION_DOT": 0.00500831, "MEAN_MOTION_DDOT": 0}, "tle": {"line1": "1 66629U 25271N   25360.75911847  .00500831  00000+0  64158-2 0  9996", "line2": "2 66629  53.1714 119.9159 0009882  28.4892 331.6659 15.56920360  1244"}}, "geometry": {"type": "Point", "coordinates": [-86.60086814740384, 29.84273086061943]}}, {"type": "Feature", "properties": {"norad_id": 66630, "name": "STARLINK-35949", "group": "last-30-days", "lat": -18.427533182374752, "lon": -46.09972497050585, "alt_km": 450.4297354822984, "timestamp": "2025-12-26T23:26:40.919620+00:00", "meta": {"OBJECT_NAME": "STARLINK-35949", "OBJECT_ID": "2025-271P", "EPOCH": "2025-12-26T18:00:02.998944", "MEAN_MOTION": 15.39573124, "ECCENTRICITY": 6.07e-05, "INCLINATION": 53.1604, "RA_OF_ASC_NODE": 120.504, "ARG_OF_PERICENTER": 80.4909, "MEAN_ANOMALY": 304.7707, "EPHEMERIS_TYPE": 0, "CLASSIFICATION_TYPE": "U", "NORAD_CAT_ID": 66630, "ELEMENT_SET_NO": 999, "REV_AT_EPOCH": 600, "BSTAR": 0.0018976, "MEAN_MOTION_DOT": 0.00076146, "MEAN_MOTION_DDOT": 0}, "tle": {"line1": "1 66630U 25271P   25360.75003471  .00076146  00000+0  18976-2 0  9997", "line2": "2 66630  53.1604 120.5040 0000607  80.4909 304.7707 15.39573124  6001"}}, "geometry": {"type": "Point", "coordinates": [-46.09972497050585, -18.427533182374752]}}, {"type": "Feature", "properties": {"norad_id": 66631, "name": "STARLINK-35965", "group": "last-30-days", "lat": -19.860859127426394, "lon": -44.85530006876421, "alt_km": 450.8523611638684, "timestamp": "2025-12-26T23:26:40.919634+00:00", "meta": {"OBJECT_NAME": "STARLINK-35965", "OBJECT_ID": "2025-271Q", "EPOCH": "2025-12-26T18:00:02.998944", "MEAN_MOTION": 15.39550368, "ECCENTRICITY": 8.38e-05, "INCLINATION": 53.1602, "RA_OF_ASC_NODE": 120.5011, "ARG_OF_PERICENTER": 62.2745, "MEAN_ANOMALY": 324.8619, "EPHEMERIS_TYPE": 0, "CLASSIFICATION_TYPE": "U", "NORAD_CAT_ID": 66631, "ELEMENT_SET_NO": 999, "REV_AT_EPOCH": 611, "BSTAR": 0.0019452, "MEAN_MOTION_DOT": 0.00078026, "MEAN_MOTION_DDOT": 0}, "tle": {"line1": "1 66631U 25271Q   25360.75003471  .00078026  00000+0  19452-2 0  9997", "line2": "2 66631  53.1602 120.5011 0000838  62.2745 324.8619 15.39550368  6112"}}, "geometry": {"type": "Point", "coordinates": [-44.85530006876421, -19.860859127426394]}}, {"type": "Feature", "properties": {"norad_id": 66632, "name": "STARLINK-35973", "group": "last-30-days", "lat": -40.57830950364346, "lon": 80.00433536421194, "alt_km": 451.4357129184209, "timestamp": "2025-12-26T23:26:40.919648+00:00", "meta": {"OBJECT_NAME": "STARLINK-35973", "OBJECT_ID": "2025-271R", "EPOCH": "2025-12-26T17:26:55.042080", "MEAN_MOTION": 15.39664523, "ECCENTRICITY": 0.0002173, "INCLINATION": 53.1617, "RA_OF_ASC_NODE": 121.127, "ARG_OF_PERICENTER": 35.2508, "MEAN_ANOMALY": 324.864, "EPHEMERIS_TYPE": 0, "CLASSIFICATION_TYPE": "U", "NORAD_CAT_ID": 66632, "ELEMENT_SET_NO": 999, "REV_AT_EPOCH": 632, "BSTAR": 0.0012861, "MEAN_MOTION_DOT": 0.00051467, "MEAN_MOTION_DDOT": 0}, "tle": {"line1": "1 66632U 25271R   25360.72702595  .00051467  00000+0  12861-2 0  9995", "line2": "2 66632  53.1617 121.1270 0002173  35.2508 324.8640 15.39664523  6320"}}, "geometry": {"type": "Point", "coordinates": [80.00433536421194, -40.57830950364346]}}, {"type": "Feature", "properties": {"norad_id": 66633, "name": "STARLINK-35948", "group": "last-30-days", "lat": -39.431974800754766, "lon": 81.88160179770225, "alt_km": 451.851797144579, "timestamp": "2025-12-26T23:26:40.919660+00:00", "meta": {"OBJECT_NAME": "STARLINK-35948", "OBJECT_ID": "2025-271S", "EPOCH": "2025-12-26T17:26:26.128320", "MEAN_MOTION": 15.39638494, "ECCENTRICITY": 0.0001081, "INCLINATION": 53.1606, "RA_OF_ASC_NODE": 121.1226, "ARG_OF_PERICENTER": 69.9057, "MEAN_ANOMALY": 290.2064, "EPHEMERIS_TYPE": 0, "CLASSIFICATION_TYPE": "U", "NORAD_CAT_ID": 66633, "ELEMENT_SET_NO": 999, "REV_AT_EPOCH": 636, "BSTAR": 0.0013683, "MEAN_MOTION_DOT": 0.00054759, "MEAN_MOTION_DDOT": 0}, "tle": {"line1": "1 66633U 25271S   25360.72669130  .00054759  00000+0  13683-2 0  9993", "line2": "2 66633  53.1606 121.1226 0001081  69.9057 290.2064 15.39638494  6368"}}, "geometry": {"type": "Point", "coordinates": [81.88160179770225, -39.431974800754766]}}, {"type": "Feature", "properties": {"norad_id": 66634, "name": "STARLINK-35967", "group": "last-30-days", "lat": -21.085101827236638, "lon": 103.08722885439722, "alt_km": 450.35333622660073, "timestamp": "2025-12-26T23:26:40.919671+00:00", "meta": {"OBJECT_NAME": "STARLINK-35967", "OBJECT_ID": "2025-271T", "EPOCH": "2025-12-26T14:12:47.342304", "MEAN_MOTION": 15.39676406, "ECCENTRICITY": 0.0001064, "INCLINATION": 53.1614, "RA_OF_ASC_NODE": 121.7016, "ARG_OF_PERICENTER": 81.6663, "MEAN_ANOMALY": 278.4463, "EPHEMERIS_TYPE": 0, "CLASSIFICATION_TYPE": "U", "NORAD_CAT_ID": 66634, "ELEMENT_SET_NO": 999, "REV_AT_EPOCH": 630, "BSTAR": 0.0014187, "MEAN_MOTION_DOT": 0.00056878, "MEAN_MOTION_DDOT": 0}, "tle": {"line1": "1 66634U 25271T   25360.59221461  .00056878  00000+0  14187-2 0  9994", "line2": "2 66634  53.1614 121.7016 0001064  81.6663 278.4463 15.39676406  6306"}}, "geometry": {"type": "Point", "coordinates": [103.08722885439722, -21.085101827236638]}}]}